CTC2_L_00595007-03
1 10062U 26640OM  26075.70049769  .00000000  00000+0  00000-0 0  9998
2 10062  50.0000 180.0000 0000000   0.0000 144.0000  6.30405269    10
CTC2_L_00595007-04
1 10063U 26435XT  26075.70049769  .00000000  00000+0  00000-0 0  9991
2 10063  50.0000 180.0000 0000000   0.0000 180.0000  6.30405269    11
CTC2_L_00595007-05
1 10064U 24999UV  26075.70049769  .00000000  00000+0  00000-0 0  9995
2 10064  50.0000 180.0000 0000000   0.0000 216.0000  6.30405269    12
CTC2_L_00595007-06
1 10065U 22562MF  26075.70049769  .00000000  00000+0  00000-0 0  9990
2 10065  50.0000 180.0000 0000000   0.0000 252.0000  6.30405269    13
CTC2_L_00595007-07
1 10066U 25469FM  26075.70049769  .00000000  00000+0  00000-0 0  9990
2 10066  50.0000 180.0000 0000000   0.0000 288.0000  6.30405269    13
CTC2_L_00595007-08
1 10067U 26608QZ  26075.70049769  .00000000  00000+0  00000-0 0  9997
2 10067  50.0000 180.0000 0000000   0.0000 324.0000  6.30405269    15
CTC2_L_00595007-09
1 10068U 24910MQ  26075.70049769  .00000000  00000+0  00000-0 0  9992
2 10068  50.0000 180.0000 0000000   0.0000   0.0000  6.30405269    17
CTC2_L_00595007-10
1 10069U 24589YU  26075.70049769  .00000000  00000+0  00000-0 0  9995
2 10069  50.0000 180.0000 0000000   0.0000  36.0000  6.30405269    17
CTC2_L_00595008-01
1 10070U 26829ID  26075.70049769  .00000000  00000+0  00000-0 0  9996
2 10070  50.0000 210.0000 0000000   0.0000  84.0000  6.30405269    16
CTC2_L_00595008-02
1 10071U 23060UJ  26075.70049769  .00000000  00000+0  00000-0 0  9991
2 10071  50.0000 210.0000 0000000   0.0000 120.0000  6.30405269    18
CTC2_L_00595008-03
1 10072U 23530HA  26075.70049769  .00000000  00000+0  00000-0 0  9994
2 10072  50.0000 210.0000 0000000   0.0000 156.0000  6.30405269    18
CTC2_L_00595008-04
1 10073U 24700DF  26075.70049769  .00000000  00000+0  00000-0 0  9995
2 10073  50.0000 210.0000 0000000   0.0000 192.0000  6.30405269    19
CTC2_L_00595008-05
1 10074U 22380VR  26075.70049769  .00000000  00000+0  00000-0 0  9998
2 10074  50.0000 210.0000 0000000   0.0000 228.0000  6.30405269    10
CTC2_L_00595008-06
1 10075U 26890PJ  26075.70049769  .00000000  00000+0  00000-0 0  9999
2 10075  50.0000 210.0000 0000000   0.0000 264.0000  6.30405269    11
CTC2_L_00595008-07
1 10076U 26106SV  26075.70049769  .00000000  00000+0  00000-0 0  9990
2 10076  50.0000 210.0000 0000000   0.0000 300.0000  6.30405269    13
CTC2_L_00595008-08
1 10077U 23157MY  26075.70049769  .00000000  00000+0  00000-0 0  9994
2 10077  50.0000 210.0000 0000000   0.0000 336.0000  6.30405269    13
CTC2_L_00595008-09
1 10078U 23819YK  26075.70049769  .00000000  00000+0  00000-0 0  9990
2 10078  50.0000 210.0000 0000000   0.0000  12.0000  6.30405269    15
CTC2_L_00595008-10
1 10079U 24855GL  26075.70049769  .00000000  00000+0  00000-0 0  9992
2 10079  50.0000 210.0000 0000000   0.0000  48.0000  6.30405269    15
CTC2_L_00595009-01
1 10080U 24084F   26075.70049769  .00000000  00000+0  00000-0 0  9998
2 10080  50.0000 240.0000 0000000   0.0000  96.0000  6.30405269    13
CTC2_L_00595009-02
1 10081U 26343ST  26075.70049769  .00000000  00000+0  00000-0 0  9999
2 10081  50.0000 240.0000 0000000   0.0000 132.0000  6.30405269    15
CTC2_L_00595009-03
1 10082U 26813PR  26075.70049769  .00000000  00000+0  00000-0 0  9992
2 10082  50.0000 240.0000 0000000   0.0000 168.0000  6.30405269    15
CTC2_L_00595009-04
1 10083U 23128QM  26075.70049769  .00000000  00000+0  00000-0 0  9999
2 10083  50.0000 240.0000 0000000   0.0000 204.0000  6.30405269    17
CTC2_L_00595009-05
1 10084U 22941BT  26075.70049769  .00000000  00000+0  00000-0 0  9992
2 10084  50.0000 240.0000 0000000   0.0000 240.0000  6.30405269    18
CTC2_L_00595009-06
1 10085U 23599VU  26075.70049769  .00000000  00000+0  00000-0 0  9993
2 10085  50.0000 240.0000 0000000   0.0000 276.0000  6.30405269    18
CTC2_L_00595009-07
1 10086U 26201RM  26075.70049769  .00000000  00000+0  00000-0 0  9997
2 10086  50.0000 240.0000 0000000   0.0000 312.0000  6.30405269    10
CTC2_L_00595009-08
1 10087U 23444OY  26075.70049769  .00000000  00000+0  00000-0 0  9994
2 10087  50.0000 240.0000 0000000   0.0000 348.0000  6.30405269    10
CTC2_L_00595009-09
1 10088U 26299CV  26075.70049769  .00000000  00000+0  00000-0 0  9996
2 10088  50.0000 240.0000 0000000   0.0000  24.0000  6.30405269    12
CTC2_L_00595009-10
1 10089U 24105RC  26075.70049769  .00000000  00000+0  00000-0 0  9991
2 10089  50.0000 240.0000 0000000   0.0000  60.0000  6.30405269    13
CTC2_L_00595010-01
1 10090U 25724FJ  26075.70049769  .00000000  00000+0  00000-0 0  9991
2 10090  50.0000 270.0000 0000000   0.0000 108.0000  6.30405269    11
CTC2_L_00595010-02
1 10091U 25091ND  26075.70049769  .00000000  00000+0  00000-0 0  9999
2 10091  50.0000 270.0000 0000000   0.0000 144.0000  6.30405269    12
CTC2_L_00595010-03
1 10092U 22498AP  26075.70049769  .00000000  00000+0  00000-0 0  9998
2 10092  50.0000 270.0000 0000000   0.0000 180.0000  6.30405269    13
CTC2_L_00595010-04
1 10093U 23564CF  26075.70049769  .00000000  00000+0  00000-0 0  9994
2 10093  50.0000 270.0000 0000000   0.0000 216.0000  6.30405269    14
CTC2_L_00595010-05
1 10094U 26700IY  26075.70049769  .00000000  00000+0  00000-0 0  9990
2 10094  50.0000 270.0000 0000000   0.0000 252.0000  6.30405269    15
CTC2_L_00595010-06
1 10095U 25216G   26075.70049769  .00000000  00000+0  00000-0 0  9992
2 10095  50.0000 270.0000 0000000   0.0000 288.0000  6.30405269    15
CTC2_L_00595010-07
1 10096U 25921IO  26075.70049769  .00000000  00000+0  00000-0 0  9996
2 10096  50.0000 270.0000 0000000   0.0000 324.0000  6.30405269    17
CTC2_L_00595010-08
1 10097U 24038TC  26075.70049769  .00000000  00000+0  00000-0 0  9995
2 10097  50.0000 270.0000 0000000   0.0000   0.0000  6.30405269    19
CTC2_L_00595010-09
1 10098U 25223DA  26075.70049769  .00000000  00000+0  00000-0 0  9993
2 10098  50.0000 270.0000 0000000   0.0000  36.0000  6.30405269    19
CTC2_L_00595010-10
1 10099U 22120JP  26075.70049769  .00000000  00000+0  00000-0 0  9997
2 10099  50.0000 270.0000 0000000   0.0000  72.0000  6.30405269    10
CTC2_L_00595011-01
1 10100U 26821ZO  26075.70049769  .00000000  00000+0  00000-0 0  9992
2 10100  50.0000 300.0000 0000000   0.0000 120.0000  6.30405269    11
CTC2_L_00595011-02
1 10101U 25951QX  26075.70049769  .00000000  00000+0  00000-0 0  9996
2 10101  50.0000 300.0000 0000000   0.0000 156.0000  6.30405269    11
CTC2_L_00595011-03
1 10102U 22034IM  26075.70049769  .00000000  00000+0  00000-0 0  9996
2 10102  50.0000 300.0000 0000000   0.0000 192.0000  6.30405269    12
CTC2_L_00595011-04
1 10103U 26335UF  26075.70049769  .00000000  00000+0  00000-0 0  9995
2 10103  50.0000 300.0000 0000000   0.0000 228.0000  6.30405269    13
CTC2_L_00595011-05
1 10104U 25019TN  26075.70049769  .00000000  00000+0  00000-0 0  9994
2 10104  50.0000 300.0000 0000000   0.0000 264.0000  6.30405269    14
CTC2_L_00595011-06
1 10105U 25052CH  26075.70049769  .00000000  00000+0  00000-0 0  9992
2 10105  50.0000 300.0000 0000000   0.0000 300.0000  6.30405269    16
CTC2_L_00595011-07
1 10106U 24761RY  26075.70049769  .00000000  00000+0  00000-0 0  9999
2 10106  50.0000 300.0000 0000000   0.0000 336.0000  6.30405269    16
CTC2_L_00595011-08
1 10107U 22941OT  26075.70049769  .00000000  00000+0  00000-0 0  9998
2 10107  50.0000 300.0000 0000000   0.0000  12.0000  6.30405269    18
CTC2_L_00595011-09
1 10108U 24748RG  26075.70049769  .00000000  00000+0  00000-0 0  9996
2 10108  50.0000 300.0000 0000000   0.0000  48.0000  6.30405269    18
CTC2_L_00595011-10
1 10109U 24505ST  26075.70049769  .00000000  00000+0  00000-0 0  9998
2 10109  50.0000 300.0000 0000000   0.0000  84.0000  6.30405269    19
CTC2_L_00595012-01
1 10110U 26339KF  26075.70049769  .00000000  00000+0  00000-0 0  9997
2 10110  50.0000 330.0000 0000000   0.0000 132.0000  6.30405269    18
CTC2_L_00595012-02
1 10111U 26803OO  26075.70049769  .00000000  00000+0  00000-0 0  9994
2 10111  50.0000 330.0000 0000000   0.0000 168.0000  6.30405269    18
CTC2_L_00595012-03
1 10112U 26260HM  26075.70049769  .00000000  00000+0  00000-0 0  9992
2 10112  50.0000 330.0000 0000000   0.0000 204.0000  6.30405269    10
CTC2_L_00595012-04
1 10113U 24898NS  26075.70049769  .00000000  00000+0  00000-0 0  9998
2 10113  50.0000 330.0000 0000000   0.0000 240.0000  6.30405269    11
CTC2_L_00595012-05
1 10114U 23883PC  26075.70049769  .00000000  00000+0  00000-0 0  9992
2 10114  50.0000 330.0000 0000000   0.0000 276.0000  6.30405269    11
CTC2_L_00595012-06
1 10115U 24895II  26075.70049769  .00000000  00000+0  00000-0 0  9997
2 10115  50.0000 330.0000 0000000   0.0000 312.0000  6.30405269    13
CTC2_L_00595012-07
1 10116U 24087QF  26075.70049769  .00000000  00000+0  00000-0 0  9991
2 10116  50.0000 330.0000 0000000   0.0000 348.0000  6.30405269    13
CTC2_L_00595012-08
1 10117U 25196YQ  26075.70049769  .00000000  00000+0  00000-0 0  9994
2 10117  50.0000 330.0000 0000000   0.0000  24.0000  6.30405269    15
CTC2_L_00595012-09
1 10118U 24904VL  26075.70049769  .00000000  00000+0  00000-0 0  9991
2 10118  50.0000 330.0000 0000000   0.0000  60.0000  6.30405269    16
CTC2_L_00595012-10
1 10119U 23921VP  26075.70049769  .00000000  00000+0  00000-0 0  9990
2 10119  50.0000 330.0000 0000000   0.0000  96.0000  6.30405269    16
